OOV-CUBE (TUBSAT-30)    
1 60240U 24128F   26073.62163683  .00004141  00000+0  31800-3 0  9996
2 60240  61.9949 195.2009 0054104 113.3541 247.3255 15.02294035 91908
